NORAD_CAT_ID,OBJECT_NAME,OBJECT_TYPE,EPOCH,MEAN_MOTION,ECCENTRICITY,INCLINATION,RA_OF_ASC_NODE,ARG_OF_PERICENTER,MEAN_ANOMALY,BSTAR,MEAN_MOTION_DOT,MEAN_MOTION_DDOT,TLE_LINE0,TLE_LINE1,TLE_LINE2,SEMIMAJOR_AXIS,PERIOD,APOGEE,PERIGEE,DECAYED
51125.0,STARLINK-3387,PAYLOAD,2022-03-07 12:00:00,15.73142225,0.0003348999999999,53.2165,39.6286,12.0206,132.92600000000002,0.00027442,0.00037979,0.0,0 STARLINK-3387,1 51125U 22005X   22066.50001157  .00037979  00000-0  27442-3 0  9995,2 51125  53.2165  39.6286 0003349  12.0206 132.9260 15.73142225  8780,6728.06,91.537,352.17800000000005,347.672,0.0
51125.0,STARLINK-3387,PAYLOAD,2022-03-07 22:00:00,15.73340113,0.0003187,53.2171,37.5536,9.3505,336.644,-0.003119,-0.00419946,0.0,0 STARLINK-3387,1 51125U 22005X   22066.91667824 -.00419946  00000-0 -31190-2 0  9993,2 51125  53.2171  37.5536 0003187   9.3505 336.6440 15.73340113  8850,6727.496,91.525,351.505,347.217,0.0
51125.0,STARLINK-3387,PAYLOAD,2022-03-08 14:00:01,15.72818189,0.0003122,53.2173,34.2408,10.2343,153.3098,-0.0056857,-0.00722008,0.0,0 STARLINK-3387,1 51125U 22005X   22067.58334491 -.00722008  00000-0 -56857-2 0  9991,2 51125  53.2173  34.2408 0003122  10.2343 153.3098 15.72818189  3696,6728.984,91.555,352.95,348.74800000000016,0.0
51125.0,STARLINK-3387,PAYLOAD,2022-03-08 20:00:01,15.72434521,0.000345,53.2173,33.0019,6.4886,133.2317,-0.0057625,-0.00720081,0.0,0 STARLINK-3387,1 51125U 22005X   22067.83334491 -.00720081  00000-0 -57625-2 0  9992,2 51125  53.2173  33.0019 0003450   6.4886 133.2317 15.72434521  8997,6730.078,91.578,354.265,349.622,0.0
51125.0,STARLINK-3387,PAYLOAD,2022-03-08 22:00:00,15.72307616,0.0003319,53.2175,32.5894,8.0331,243.6684,-0.005788,-0.00719365,0.0,0 STARLINK-3387,1 51125U 22005X   22067.91667824 -.00719365  00000-0 -57880-2 0  9996,2 51125  53.2175  32.5894 0003319   8.0331 243.6684 15.72307616  3713,6730.441,91.585,354.539,350.07199999999995,0.0
51125.0,STARLINK-3387,PAYLOAD,2022-03-09 14:00:01,15.71293123,0.0003166,53.2173,29.29300000000001,337.5667,88.6089,-0.0061362,-0.00729446,0.0,0 STARLINK-3387,1 51125U 22005X   22068.58334491 -.00729446  00000-0 -61362-2 0  9992,2 51125  53.2173  29.2930 0003166 337.5667  88.6089 15.71293123  3696,6733.337,91.644,357.334,353.07,0.0
51125.0,STARLINK-3387,PAYLOAD,2022-03-09 22:00:01,15.70780309,0.0004005,53.2176,27.6453,324.2737,188.2878,-0.0062273999999999,-0.00725062,0.0,0 STARLINK-3387,1 51125U 22005X   22068.91668981 -.00725062  00000-0 -62274-2 0  9996,2 51125  53.2176  27.6453 0004005 324.2737 188.2878 15.70780309  9162,6734.803000000001,91.674,359.365,353.97,0.0
51125.0,STARLINK-3387,PAYLOAD,2022-03-10 14:00:01,15.69749782,0.0001719,53.2175,24.356,280.3613,42.9375,-0.0063183,-0.00705477,0.0,0 STARLINK-3387,1 51125U 22005X   22069.58334491 -.00705477  00000-0 -63183-2 0  9994,2 51125  53.2175  24.3560 0001719 280.3613  42.9375 15.69749782  3696,6737.75,91.734,360.773,358.457,0.0
51125.0,STARLINK-3387,PAYLOAD,2022-03-10 22:00:01,15.69248827,0.0001113,53.2176,22.7125,7.5013,40.3402,-0.0066028,-0.00720532,0.0,0 STARLINK-3387,1 51125U 22005X   22069.91668981 -.00720532  00000-0 -66028-2 0  9995,2 51125  53.2176  22.7125 0001113   7.5013  40.3402 15.69248827  3706,6739.184,91.764,361.799,360.299,0.0
51125.0,STARLINK-3387,PAYLOAD,2022-03-11 04:00:00,15.68865983,0.0001083,53.2173,21.4829,52.3554,328.3781,-0.0067087,-0.00720527,0.0,0 STARLINK-3387,1 51125U 22005X   22070.16667824 -.00720527  00000-0 -67087-2 0  9999,2 51125  53.2173  21.4829 0001083  52.3554 328.3781 15.68865983  9368,6740.28,91.786,362.875,361.415,0.0
51125.0,STARLINK-3387,PAYLOAD,2022-03-11 14:00:01,15.68229049,0.0001197,53.2174,19.4304,73.2096,141.6892,-0.0068958,-0.00721317,0.0,0 STARLINK-3387,1 51125U 22005X   22070.58334491 -.00721317  00000-0 -68958-2 0  9992,2 51125  53.2174  19.4304 0001197  73.2096 141.6892 15.68229049  3688,6742.105,91.823,364.777,363.163,0.0
51125.0,STARLINK-3387,PAYLOAD,2022-03-11 22:00:00,15.67717616,0.0001148,53.2175,17.7909,76.1804,221.3611,-0.0070086,-0.00718114,0.0,0 STARLINK-3387,1 51125U 22005X   22070.91667824 -.00718114  00000-0 -70086-2 0  9994,2 51125  53.2175  17.7909 0001148  76.1804 221.3611 15.67717616  3693,6743.571,91.853,366.21,364.662,0.0
51125.0,STARLINK-3387,PAYLOAD,2022-03-12 06:00:00,15.67206249,0.0001193,53.2175,16.1547,55.9444,323.6261,-0.0071417,-0.00716711,0.0,0 STARLINK-3387,1 51125U 22005X   22071.25001157 -.00716711  00000-0 -71417-2 0  9993,2 51125  53.2175  16.1547 0001193  55.9444 323.6261 15.67206249  9530,6745.038000000001,91.883,367.708,366.098,0.0
51125.0,STARLINK-3387,PAYLOAD,2022-03-12 14:00:01,15.66695975,0.00012,53.2175,14.515999999999998,57.8736,43.1145,-0.007279,-0.00715544,0.0,0 STARLINK-3387,1 51125U 22005X   22071.58334491 -.00715544  00000-0 -72790-2 0  9997,2 51125  53.2175  14.5160 0001200  57.8736  43.1145 15.66695975  3690,6746.503000000002,91.913,369.177,367.5580000000001,0.0
51125.0,STARLINK-3387,PAYLOAD,2022-03-12 22:00:00,15.66185842,0.0001433,53.2177,12.8804,51.5222,130.2699,-0.0074251,-0.00715034,0.0,0 STARLINK-3387,1 51125U 22005X   22071.91667824 -.00715034  00000-0 -74251-2 0  9991,2 51125  53.2177  12.8804 0001433  51.5222 130.2699 15.66185842  3708,6747.967,91.943,370.799,368.865,0.0
51125.0,STARLINK-3387,PAYLOAD,2022-03-13 06:00:00,15.65674682,0.0001302,53.2175,11.2478,60.99800000000001,200.9843,-0.0075593,-0.00713196,0.0,0 STARLINK-3387,1 51125U 22005X   22072.25001157 -.00713196  00000-0 -75593-2 0  9997,2 51125  53.2175  11.2478 0001302  60.9980 200.9843 15.65674682  9690,6749.436,91.973,372.18,370.422,0.0
51125.0,STARLINK-3387,PAYLOAD,2022-03-13 14:00:01,15.65167202,0.0001155,53.2174,9.6128,57.9087,283.6521,-0.0077656999999999,-0.00717443,0.0,0 STARLINK-3387,1 51125U 22005X   22072.58334491 -.00717443  00000-0 -77657-2 0  9995,2 51125  53.2174   9.6128 0001155  57.9087 283.6521 15.65167202  3692,6750.895,92.003,373.54,371.98,0.0
51125.0,STARLINK-3387,PAYLOAD,2022-03-13 22:00:01,15.64657913,0.000137,53.2175,7.9811,44.7661,15.8249,-0.0079355,-0.00718284,0.0,0 STARLINK-3387,1 51125U 22005X   22072.91668981 -.00718284  00000-0 -79355-2 0  9997,2 51125  53.2175   7.9811 0001370  44.7661  15.8249 15.64657913  3698,6752.36,92.033,375.15,373.3,0.0
51125.0,STARLINK-3387,PAYLOAD,2022-03-14 04:00:00,15.64275907,0.000117,53.2174,6.7596,58.2298,331.1167,-0.0080672,-0.00719038,0.0,0 STARLINK-3387,1 51125U 22005X   22073.16667824 -.00719038  00000-0 -80672-2 0  9992,2 51125  53.2174   6.7596 0001170  58.2298 331.1167 15.64275907  9832,6753.459,92.055,376.114,374.534,0.0
51125.0,STARLINK-3387,PAYLOAD,2022-03-14 14:00:01,15.63636141,0.0001318,53.2176,4.7205,59.4759,157.2085,-0.0082214,-0.00714782,0.0,0 STARLINK-3387,1 51125U 22005X   22073.58335648 -.00714782  00000-0 -82214-2 0  9999,2 51125  53.2176   4.7205 0001318  59.4759 157.2085 15.63636141  3670,6755.301,92.093,378.056,376.276,0.0
51125.0,STARLINK-3387,PAYLOAD,2022-03-14 20:00:01,15.63254168,0.0001378,53.2176,3.4992,60.0197,124.5019,-0.0083457,-0.00714715,0.0,0 STARLINK-3387,1 51125U 22005X   22073.83334491 -.00714715  00000-0 -83457-2 0  9998,2 51125  53.2176   3.4992 0001378  60.0197 124.5019 15.63254168  3690,6756.401,92.116,379.197,377.335,0.0
51125.0,STARLINK-3387,PAYLOAD,2022-03-14 22:00:00,15.63127517,0.0001419999999999,53.2177,3.0929,48.7317,245.0138,-0.0084178,-0.00717089,0.0,0 STARLINK-3387,1 51125U 22005X   22073.91667824 -.00717089  00000-0 -84178-2 0  9994,2 51125  53.2177   3.0929 0001420  48.7317 245.0138 15.63127517  9955,6756.766,92.123,379.591,377.672,0.0
51125.0,STARLINK-3387,PAYLOAD,2022-03-15 02:00:01,15.62871674,0.0001626999999999,53.2173,2.2803,42.8266,109.2523,-0.0084864,-0.0071583,0.0,0 STARLINK-3387,1 51125U 22005X   22074.08334491 -.00715830  00000-0 -84864-2 0  9998,2 51125  53.2173   2.2803 0001627  42.8266 109.2523 15.62871674  3671,6757.504,92.138,380.468,378.269,0.0
51125.0,STARLINK-3387,PAYLOAD,2022-03-15 20:00:01,15.61724134,0.0001546,53.2176,358.6213,36.9617,15.7241,-0.0088652,-0.00714931,0.0,0 STARLINK-3387,1 51125U 22005X   22074.83334491 -.00714931  00000-0 -88652-2 0  9991,2 51125  53.2176 358.6213 0001546  36.9617  15.7241 15.61724134 10090,6760.814,92.206,383.724,381.633,0.0
51125.0,STARLINK-3387,PAYLOAD,2022-03-15 22:00:00,15.61596191,0.0001708,53.2175,358.2158,37.9896,123.4609,-0.0089033,-0.00714502,0.0,0 STARLINK-3387,1 51125U 22005X   22074.91667824 -.00714502  00000-0 -89033-2 0  9997,2 51125  53.2175 358.2158 0001708  37.9896 123.4609 15.61596191  3685,6761.183000000001,92.213,384.203,381.893,0.0
51125.0,STARLINK-3387,PAYLOAD,2022-03-16 14:00:01,15.60575531,0.000132,53.2173,354.97,47.6924,262.4977,-0.009245,-0.00713131,0.0,0 STARLINK-3387,1 51125U 22005X   22075.58334491 -.00713131  00000-0 -92450-2 0  9996,2 51125  53.2173 354.9700 0001320  47.6924 262.4977 15.60575531  3685,6764.130999999999,92.274,386.888,385.103,0.0
51125.0,STARLINK-3387,PAYLOAD,2022-03-16 20:00:01,15.601949,0.0001456,53.2175,353.7544,48.9779,226.3563,-0.0094131,-0.00715334,0.0,0 STARLINK-3387,1 51125U 22005X   22075.83334491 -.00715334  00000-0 -94131-2 0  9999,2 51125  53.2175 353.7544 0001456  48.9779 226.3563 15.60194900 10250,6765.231,92.296,388.081,386.111,0.0
51125.0,STARLINK-3387,PAYLOAD,2022-03-17 14:00:01,15.59044832,0.000148,53.2174,350.1112,47.6285,121.0744,-0.0097733,-0.0071103,0.0,0 STARLINK-3387,1 51125U 22005X   22076.58334491 -.00711030  00000-0 -97733-2 0  9992,2 51125  53.2174 350.1112 0001480  47.6285 121.0744 15.59044832  3706,6768.557,92.364,391.424,389.42,0.0
51125.0,STARLINK-3387,PAYLOAD,2022-03-17 22:00:00,15.58535805,0.0001485,53.2177,348.4952,51.106,189.208,-0.0099915,-0.00712779,0.0,0 STARLINK-3387,1 51125U 22005X   22076.91667824 -.00712779  00000-0 -99915-2 0  9993,2 51125  53.2177 348.4952 0001485  51.1060 189.2080 15.58535805  3700,6770.031,92.394,392.901,390.891,0.0
